{
    "links": {
        "self": "http://www.neowsapp.com/rest/v1/neo/3829439?api_key=iIulBulltgU6a56xZRHN4H3l9WmuAYTsLGpBGhQ2"
    },
    "id": "3829439",
    "neo_reference_id": "3829439",
    "name": "(2018 RG6)",
    "designation": "2018 RG6",
    "nasa_jpl_url": "http://ssd.jpl.nasa.gov/sbdb.cgi?sstr=3829439",
    "absolute_magnitude_h": 24.3,
    "estimated_diameter": {
        "kilometers": {
            "estimated_diameter_min": 0.0366906138,
            "estimated_diameter_max": 0.0820427065
        },
        "meters": {
            "estimated_diameter_min": 36.6906137531,
            "estimated_diameter_max": 82.0427064882
        },
        "miles": {
            "estimated_diameter_min": 0.0227984834,
            "estimated_diameter_max": 0.0509789586
        },
        "feet": {
            "estimated_diameter_min": 120.3760332259,
            "estimated_diameter_max": 269.1689931548
        }
    },
    "is_potentially_hazardous_asteroid": false,
    "close_approach_data": [
        {
            "close_approach_date": "1903-08-21",
            "close_approach_date_full": "1903-Aug-21 04:52",
            "epoch_date_close_approach": -2094318480000,
            "relative_velocity": {
                "kilometers_per_second": "20.0605160336",
                "kilometers_per_hour": "72217.857721054",
                "miles_per_hour": "44873.3683156182"
            },
            "miss_distance": {
                "astronomical": "0.4161067029",
                "lunar": "161.8655074281",
                "kilometers": "62248676.446562823",
                "miles": "38679533.9500720374"
            },
            "orbiting_body": "Earth"
        },
        {
            "close_approach_date": "2018-09-12",
            "close_approach_date_full": "2018-Sep-12 21:10",
            "epoch_date_close_approach": 1536786600000,
            "relative_velocity": {
                "kilometers_per_second": "12.3474822256",
                "kilometers_per_hour": "44450.9360121895",
                "miles_per_hour": "27620.082990463"
            },
            "miss_distance": {
                "astronomical": "0.0675604022",
                "lunar": "26.2809964558",
                "kilometers": "10106892.265463314",
                "miles": "6280131.6401851732"
            },
            "orbiting_body": "Earth"
        }
    ],
    "orbital_data": {
        "orbit_id": "3",
        "orbit_determination_date": "2018-09-19 07:00:24",
        "first_observation_date": "2018-09-12",
        "last_observation_date": "2018-09-18",
        "data_arc_in_days": 6,
        "observations_used": 36,
        "orbit_uncertainty": "8",
        "minimum_orbit_intersection": ".0510368",
        "jupiter_tisserand_invariant": "3.948",
        "epoch_osculation": "2458375.5",
        "eccentricity": ".4242592946131819",
        "semi_major_axis": "1.766698130744692",
        "inclination": "18.10457128696642",
        "ascending_node_longitude": "169.5756318534586",
        "orbital_period": "857.7129182811111",
        "perihelion_distance": "1.017160028000522",
        "perihelion_argument": "211.0292159139499",
        "aphelion_distance": "2.516236233488862",
        "perihelion_time": "2458399.556424380135",
        "mean_anomaly": "349.9030169742526",
        "mean_motion": ".4197208556931304",
        "equinox": "J2000",
        "orbit_class": {
            "orbit_class_type": "AMO",
            "orbit_class_description": "Near-Earth asteroid orbits similar to that of 1221 Amor",
            "orbit_class_range": "1.017 AU < q (perihelion) < 1.3 AU"
        }
    },
    "is_sentry_object": false
}